LEMUR-1                 
1 40044U 14033AL  26157.17768813  .00003039  00000+0  35312-3 0  9996
2 40044  97.7870 307.2289 0049662 113.7715 246.8719 14.85202000643838
LEMUR-2-GREENBERG       
1 42837U 17042N   26158.21896595  .00017738  00000+0  59289-3 0  9996
2 42837  97.3821 338.8925 0009470  48.2809 311.9241 15.31020951486865
LEMUR-2-ANDIS           
1 42838U 17042P   26157.74910751  .00027382  00000+0  82057-3 0  9990
2 42838  97.3683 338.5736 0009057  49.2245 310.9782 15.34429480486856
LEMUR-2-MONSON          
1 42839U 17042Q   26157.74776541  .00018878  00000+0  69789-3 0  9995
2 42839  97.4081 338.4115 0007211  41.8321 318.3469 15.27735616486579
LEMUR-2-FURIAUS         
1 42840U 17042R   26158.00946105  .00019501  00000+0  67416-3 0  9991
2 42840  97.3774 336.6626 0008566 100.4880 259.7326 15.29916842486655
LEMUR-2-PETERG          
1 42841U 17042S   26158.24878134  .00024832  00000+0  76758-3 0  9996
2 42841  97.3996 343.2667 0004037  33.3323 326.8173 15.33497631486916
LEMUR-2-DEMBITZ         
1 42842U 17042T   26158.22591995  .00016353  00000+0  56476-3 0  9996
2 42842  97.3828 339.8931 0007553  60.8935 299.3061 15.29994018486822
LEMUR-2-ZACHARY         
1 42845U 17042W   26158.24701154  .00046856  00000+0  85142-3 0  9994
2 42845  97.3614 349.6783 0003591  67.4057 292.7574 15.49406186487663
LEMUR-2-AMANDA-SVANTE   
1 48269U 21034B   26158.18149767  .00031416  00000+0  96376-3 0  9992
2 48269  97.5755 236.2078 0001093 251.8762 108.2361 15.33699325279523
LEMUR-2-SPECIAL-K       
1 48273U 21034F   26158.48286603  .00133533  00000+0  15219-2 0  9990
2 48273  97.5652 244.6599 0003067 237.4308 122.6653 15.61798144280171
LEMUR-2-EMBRIONOVIS     
1 56970U 23084AQ  26158.11344223  .00014086  00000+0  38714-3 0  9990
2 56970  97.6285 301.9290 0008442 359.1337   0.9891 15.37298237166130
LEMUR-2-DEVERILL-M-T    
1 57391U 23100F   26158.35553912  .00026205  00000+0  67349-3 0  9992
2 57391  99.4477 194.2789 0007163  80.5072 279.6976 15.39268339159736
LEMUR-2-BASS            
1 58259U 23174D   26158.48219351  .00017811  00000+0  40847-3 0  9994
2 58259  97.3841 243.0617 0006983 193.9776 166.1279 15.42773375143862
LEMUR-2-JK0903EM1407    
1 58336U 23174CJ  26158.21088816  .00027596  00000+0  47288-3 0  9998
2 58336  97.3916 248.4073 0005908 146.8789 213.2833 15.51169256144186
LEMUR-2-MJR092620       
1 58340U 23174CN  26158.24742932  .00019148  00000+0  41404-3 0  9990
2 58340  97.3967 248.0969 0006962 146.9927 213.1757 15.44510579144110
LEMUR-2-NIMBUS2000      
1 58899U 24022A   26158.33119348  .00017935  00000+0  45515-3 0  9990
2 58899  97.4120   8.2109 0009946 146.4538 213.7339 15.39680089130756
LEMUR-2-VALHALLA        
1 58900U 24022B   26158.32539185  .00016983  00000+0  43541-3 0  9996
2 58900  97.4119   8.2007 0010520 142.8264 217.3711 15.39372893130755
LEMUR-2-OBA-NI-JESU     
1 58902U 24022D   26158.14123867  .01012605  57640-3  13304-2 0  9991
2 58902  97.3738  22.5631 0004530 191.1626 168.9557 16.07006183131716
LEMUR-2-CAEL            
1 58903U 24022E   26158.34348019  .00018310  00000+0  45013-3 0  9997
2 58903  97.4102   9.1378 0009132 126.4567 233.7522 15.40652466130821
LEMUR-2-JOHNNYTRUONG    
1 59146U 24043BA  26158.14407166  .00043727  00000+0  54625-3 0  9996
2 59146  97.5377 309.2317 0004453 207.4289 152.6732 15.59721637126470
LEMUR-2-TOMATOKECHUP    
1 60471U 24149D   26158.46523769  .00010830  00000+0  31289-3 0  9999
2 60471  97.3792 240.4889 0000474 202.2067 157.9156 15.35829174100679
LEMUR-2-STELLA          
1 60533U 24149BT  26158.21912873  .00011654  00000+0  68968-3 0  9998
2 60533  97.6731 240.6325 0001991  99.3242 260.8213 15.11595750 98999
LEMUR-2-MARHISYAM       
1 60536U 24149BW  26158.19586204  .00011323  00000+0  68030-3 0  9996
2 60536  97.6872 241.0479 0003054 137.1445 223.0023 15.11053605 98977
LEMUR-2-AHMED-ASRAR     
1 60576U 24149DN  26158.50416446  .00012771  00000+0  73668-3 0  9996
2 60576  97.6999 243.4133 0002636  64.5304 295.6199 15.12496052 99109
LEMUR-2-LLOYD           
1 60577U 24149DP  26158.22922517  .00010904  00000+0  69218-3 0  9999
2 60577  97.6742 239.3547 0004386 164.9959 195.1400 15.09048837 98898
LEMUR-2-SQUIRRELCOMM    
1 60578U 24149DQ  26158.49547470  .00006905  00000+0  46442-3 0  9990
2 60578  97.6712 239.4383 0006902  88.2968 271.9050 15.07044872 98942
LEMUR-2-SIERRINI        
1 60579U 24149DR  26158.48222942  .00011423  00000+0  69200-3 0  9992
2 60579  97.6837 241.0335 0004989 192.6669 167.4435 15.10744188 98990
LEMUR-2-WILSON          
1 62694U 25009CP  26158.45784843  .00002245  00000+0  20980-3 0  9992
2 62694  97.7027 237.0939 0004729  77.7531 282.4219 14.95127094 75907
LEMUR-2-STAR-FOX        
1 62696U 25009CR  26158.50233707  .00009223  00000+0  70123-3 0  9995
2 62696  97.6943 240.1814 0002771 136.5365 223.6079 15.02358576 76100
LEMUR-2-ARIANNA         
1 62699U 25009CU  26158.50055315  .00009293  00000+0  70684-3 0  9994
2 62699  97.6880 239.9616 0003072 144.1666 215.9765 15.02339837 76108
