OBJECT_NAME,OBJECT_ID,EPOCH,MEAN_MOTION,ECCENTRICITY,INCLINATION,RA_OF_ASC_NODE,ARG_OF_PERICENTER,MEAN_ANOMALY,EPHEMERIS_TYPE,CLASSIFICATION_TYPE,NORAD_CAT_ID,ELEMENT_SET_NO,REV_AT_EPOCH,BSTAR,MEAN_MOTION_DOT,MEAN_MOTION_DDOT
LEMUR-1,2014-033AL,2026-06-06T04:15:52.254432,14.85202000,.00496626,97.7870,307.2289,113.7715,246.8719,0,U,40044,999,64383,.35311951E-3,.3039E-4,0
LEMUR-2-GREENBERG,2017-042N,2026-06-07T05:15:18.658080,15.31020951,.000947,97.3821,338.8925,48.2809,311.9241,0,U,42837,999,48686,.59289E-3,.17738E-3,0
LEMUR-2-ANDIS,2017-042P,2026-06-06T17:58:42.888864,15.34429480,.00090573,97.3683,338.5736,49.2245,310.9782,0,U,42838,999,48685,.8205676E-3,.27382E-3,0
LEMUR-2-MONSON,2017-042Q,2026-06-06T17:56:46.931424,15.27735616,.00072113,97.4081,338.4115,41.8321,318.3469,0,U,42839,999,48657,.69788709E-3,.18878E-3,0
LEMUR-2-FURIAUS,2017-042R,2026-06-07T00:13:37.434720,15.29916842,.0008566,97.3774,336.6626,100.4880,259.7326,0,U,42840,999,48665,.67416E-3,.19501E-3,0
LEMUR-2-PETERG,2017-042S,2026-06-07T05:58:14.707776,15.33497631,.0004037,97.3996,343.2667,33.3323,326.8173,0,U,42841,999,48691,.76758E-3,.24832E-3,0
LEMUR-2-DEMBITZ,2017-042T,2026-06-07T05:25:19.483680,15.29994018,.0007553,97.3828,339.8931,60.8935,299.3061,0,U,42842,999,48682,.56476E-3,.16353E-3,0
LEMUR-2-ZACHARY,2017-042W,2026-06-07T05:55:41.797056,15.49406186,.0003591,97.3614,349.6783,67.4057,292.7574,0,U,42845,999,48766,.85142E-3,.46856E-3,0
LEMUR-2-AMANDA-SVANTE,2021-034B,2026-06-07T04:21:21.398688,15.33699325,.0001093,97.5755,236.2078,251.8762,108.2361,0,U,48269,999,27952,.96376E-3,.31416E-3,0
LEMUR-2-SPECIAL-K,2021-034F,2026-06-07T11:35:19.624992,15.61798144,.0003067,97.5652,244.6599,237.4308,122.6653,0,U,48273,999,28017,.15219E-2,.133533E-2,0
LEMUR-2-EMBRIONOVIS,2023-084AQ,2026-06-07T02:43:21.408672,15.37298237,.0008442,97.6285,301.9290,359.1337,0.9891,0,U,56970,999,16613,.38714E-3,.14086E-3,0
LEMUR-2-DEVERILL-M-T,2023-100F,2026-06-07T08:31:58.579968,15.39268339,.0007163,99.4477,194.2789,80.5072,279.6976,0,U,57391,999,15973,.67349E-3,.26205E-3,0
LEMUR-2-BASS,2023-174D,2026-06-07T11:34:21.519264,15.42773375,.0006983,97.3841,243.0617,193.9776,166.1279,0,U,58259,999,14386,.40847E-3,.17811E-3,0
LEMUR-2-JK0903EM1407,2023-174CJ,2026-06-07T05:03:40.737024,15.51169256,.0005908,97.3916,248.4073,146.8789,213.2833,0,U,58336,999,14418,.47288E-3,.27596E-3,0
LEMUR-2-MJR092620,2023-174CN,2026-06-07T05:56:17.893248,15.44510579,.0006962,97.3967,248.0969,146.9927,213.1757,0,U,58340,999,14411,.41404E-3,.19148E-3,0
LEMUR-2-NIMBUS2000,2024-022A,2026-06-07T07:56:55.116672,15.39680089,.0009946,97.4120,8.2109,146.4538,213.7339,0,U,58899,999,13075,.45515E-3,.17935E-3,0
LEMUR-2-VALHALLA,2024-022B,2026-06-07T07:48:33.855840,15.39372893,.001052,97.4119,8.2007,142.8264,217.3711,0,U,58900,999,13075,.43541E-3,.16983E-3,0
LEMUR-2-OBA-NI-JESU,2024-022D,2026-06-07T03:23:23.021088,16.07006183,.000453,97.3738,22.5631,191.1626,168.9557,0,U,58902,999,13171,.13304E-2,.1012605E-1,.5764E-3
LEMUR-2-CAEL,2024-022E,2026-06-07T08:14:36.688416,15.40652466,.0009132,97.4102,9.1378,126.4567,233.7522,0,U,58903,999,13082,.45013E-3,.1831E-3,0
LEMUR-2-JOHNNYTRUONG,2024-043BA,2026-06-07T03:27:27.791424,15.59721637,.0004453,97.5377,309.2317,207.4289,152.6732,0,U,59146,999,12647,.54625E-3,.43727E-3,0
LEMUR-2-TOMATOKECHUP,2024-149D,2026-06-07T11:09:56.536416,15.35829174,.0000474,97.3792,240.4889,202.2067,157.9156,0,U,60471,999,10067,.31289E-3,.1083E-3,0
LEMUR-2-STELLA,2024-149BT,2026-06-07T05:15:32.722272,15.11595750,.0001991,97.6731,240.6325,99.3242,260.8213,0,U,60533,999,9899,.68968E-3,.11654E-3,0
LEMUR-2-MARHISYAM,2024-149BW,2026-06-07T04:42:02.480256,15.11053605,.0003054,97.6872,241.0479,137.1445,223.0023,0,U,60536,999,9897,.6803E-3,.11323E-3,0
LEMUR-2-AHMED-ASRAR,2024-149DN,2026-06-07T12:05:59.809344,15.12496052,.0002636,97.6999,243.4133,64.5304,295.6199,0,U,60576,999,9910,.73668E-3,.12771E-3,0
LEMUR-2-LLOYD,2024-149DP,2026-06-07T05:30:05.054688,15.09048837,.0004386,97.6742,239.3547,164.9959,195.1400,0,U,60577,999,9889,.69218E-3,.10904E-3,0
LEMUR-2-SQUIRRELCOMM,2024-149DQ,2026-06-07T11:53:29.014080,15.07044872,.0006902,97.6712,239.4383,88.2968,271.9050,0,U,60578,999,9894,.46442E-3,.6905E-4,0
LEMUR-2-SIERRINI,2024-149DR,2026-06-07T11:34:24.621888,15.10744188,.0004989,97.6837,241.0335,192.6669,167.4435,0,U,60579,999,9899,.692E-3,.11423E-3,0
LEMUR-2-WILSON,2025-009CP,2026-06-07T10:59:18.104352,14.95127094,.0004729,97.7027,237.0939,77.7531,282.4219,0,U,62694,999,7590,.2098E-3,.2245E-4,0
LEMUR-2-STAR-FOX,2025-009CR,2026-06-07T12:03:21.922848,15.02358576,.0002771,97.6943,240.1814,136.5365,223.6079,0,U,62696,999,7610,.70123E-3,.9223E-4,0
LEMUR-2-ARIANNA,2025-009CU,2026-06-07T12:00:47.792160,15.02339837,.0003072,97.6880,239.9616,144.1666,215.9765,0,U,62699,999,7610,.70684E-3,.9293E-4,0
